NOAA 1                  
1 04793U 70106A   25316.05599174 -.00000050  00000+0 -43935-4 0  9998
2 04793 101.3712 354.9717 0031731  53.0707   0.6451 12.54046516513473
NOAA 2 (ITOS-D)         
1 06235U 72082A   25316.81182479 -.00000015  00000+0  20176-3 0  9997
2 06235 102.0213 327.9218 0003939 221.4534 311.2905 12.53207172427840
NOAA 3                  
1 06920U 73086A   25316.83044840 -.00000026  00000+0  15059-3 0  9990
2 06920 102.2926 323.6880 0006482 161.9155  11.3816 12.40387796355076
NOAA 4                  
1 07529U 74089A   25316.79061160 -.00000022  00000+0  15641-3 0  9992
2 07529 102.0079 322.2907 0008808 249.4178 283.5793 12.53198349332413
NOAA 5                  
1 09057U 76077A   25316.88665071 -.00000011  00000+0  26864-3 0  9997
2 09057 102.2798 296.8806 0010105  16.0369  13.0774 12.37823994227712
TIROS N                 
1 11060U 78096A   25316.78676462  .00000375  00000+0  19833-3 0  9992
2 11060  98.4743 342.4504 0011088 145.0453 215.1454 14.19271003648050
NOAA 6                  
1 11416U 79057A   25316.79074941  .00000731  00000+0  27033-3 0  9997
2 11416  98.5874 342.5983 0009970 173.6325 186.4989 14.35318555419911
NOAA 7                  
1 12553U 81059A   25316.15648621  .00000116  00000+0  78601-4 0  9992
2 12553  98.8266  20.0721 0011732 164.3588 195.7952 14.17742366293999
NOAA 8                  
1 13923U 83022A   25316.75333019  .00000356  00000+0  15598-3 0  9995
2 13923  98.7385 324.1873 0015001 167.6659 192.4893 14.29705713220149
NOAA 9                  
1 15427U 84123A   25316.28199664  .00000323  00000+0  18398-3 0  9998
2 15427  99.1180 332.7019 0013799 242.5718 127.9660 14.16987206112708
NOAA 10                 
1 16969U 86073A   25316.71351362  .00000386  00000+0  16973-3 0  9995
2 16969  98.6895 305.4438 0010958 269.9118 263.5992 14.29081372 38491
NOAA 11                 
1 19531U 88089A   25316.61403134  .00000201  00000+0  12381-3 0  9991
2 19531  98.5924 264.7150 0010659 194.2096 165.8780 14.15786627916834
NOAA 12                 
1 21263U 91032A   25316.77328663  .00000295  00000+0  13984-3 0  9991
2 21263  98.6031 303.7086 0012718 303.5952  56.4014 14.26668087794105
NOAA 13                 
1 22739U 93050A   25316.29582659  .00000359  00000+0  21285-3 0  9990
2 22739  98.6767 262.4274 0010118  33.7326 326.4489 14.13586323662736
NOAA 14                 
1 23455U 94089A   25316.83727911  .00000183  00000+0  11688-3 0  9992
2 23455  98.4849 291.7378 0009316 352.3721   7.7310 14.14622547592619
NOAA 15                 
1 25338U 98030A   25316.82044833  .00000335  00000+0  15525-3 0  9991
2 25338  98.5251 338.1244 0009137 260.5623  99.4526 14.27052564430437
NOAA 16                 
1 26536U 00055A   25316.83192914  .00000212  00000+0  13338-3 0  9991
2 26536  98.4777 337.4067 0010048 196.7987 163.2856 14.13855758593157
NOAA 17                 
1 27453U 02032A   25316.86198101  .00000545  00000+0  24703-3 0  9991
2 27453  98.8352 275.4000 0010586 258.2397 101.7595 14.26106044216153
NOAA 18                 
1 28654U 05018A   25316.83175440  .00000281  00000+0  17171-3 0  9998
2 28654  98.8320  34.4691 0014902  48.9569 311.2889 14.13665753 55745
NOAA 19                 
1 33591U 09005A   25316.22631040  .00000143  00000+0  99970-4 0  9995
2 33591  98.9805  21.6739 0012804 284.9069  75.0685 14.13426352863833
SUOMI NPP               
1 37849U 11061A   25316.80753434  .00000238  00000+0  13372-3 0  9992
2 37849  98.7724 254.4254 0000683 181.5384 178.5790 14.19542444727745
NOAA 20 (JPSS-1)        
1 43013U 17073A   25316.82239146  .00000208  00000+0  11963-3 0  9993
2 43013  98.7551 253.4534 0001502 130.5302 229.6005 14.19513646413772
NOAA 21 (JPSS-2)        
1 54234U 22150A   25316.78695588  .00000251  00000+0  13997-3 0  9990
2 54234  98.7414 253.4759 0002725  91.7616 268.3872 14.19511429155840
